GLOBALSTAR M094 [+]     
1 39074U 13005C   23265.86304045 -.00000080  00000+0  13021-3 0  9998
2 39074  51.9967 310.4067 0000316  72.6482 287.4419 12.62267722492391
GLOBALSTAR M096 [+]     
1 39075U 13005D   23266.43037253 -.00000122  00000+0 -10015-3 0  9995
2 39075  52.0108 356.6958 0000336  74.1002 285.9902 12.62263861491736
GLOBALSTAR M078 [+]     
1 39076U 13005E   23266.16617179 -.00000104  00000+0 -33847-5 0  9997
2 39076  51.9866  82.8668 0000748 171.2719 188.8160 12.62261465490186
GLOBALSTAR M095 [+]     
1 39077U 13005F   23265.79712104 -.00000105  00000+0 -65715-5 0  9990
2 39077  51.9793  81.5052 0000190 140.8549 219.2331 12.62269018490140
GLOBALSTAR M087 [+]     
1 52888U 22064A   23266.44954815 -.00000101  00000+0  52864-4 0  9995
2 52888  51.9762  61.9524 0010024  48.4821 311.6939 13.37553030 61698
